{
    "links": {
        "self": "http://www.neowsapp.com/rest/v1/neo/3710162?api_key=iIulBulltgU6a56xZRHN4H3l9WmuAYTsLGpBGhQ2"
    },
    "id": "3710162",
    "neo_reference_id": "3710162",
    "name": "(2014 HO199)",
    "designation": "2014 HO199",
    "nasa_jpl_url": "http://ssd.jpl.nasa.gov/sbdb.cgi?sstr=3710162",
    "absolute_magnitude_h": 26.0,
    "estimated_diameter": {
        "kilometers": {
            "estimated_diameter_min": 0.0167708462,
            "estimated_diameter_max": 0.0375007522
        },
        "meters": {
            "estimated_diameter_min": 16.7708462163,
            "estimated_diameter_max": 37.5007521798
        },
        "miles": {
            "estimated_diameter_min": 0.0104209175,
            "estimated_diameter_max": 0.0233018799
        },
        "feet": {
            "estimated_diameter_min": 55.0224631002,
            "estimated_diameter_max": 123.0339677816
        }
    },
    "is_potentially_hazardous_asteroid": false,
    "close_approach_data": [
        {
            "close_approach_date": "2014-05-18",
            "close_approach_date_full": "2014-May-18 21:39",
            "epoch_date_close_approach": 1400449140000,
            "relative_velocity": {
                "kilometers_per_second": "9.6880672219",
                "kilometers_per_hour": "34877.0419989823",
                "miles_per_hour": "21671.2375687565"
            },
            "miss_distance": {
                "astronomical": "0.1110726924",
                "lunar": "43.2072773436",
                "kilometers": "16616238.198205188",
                "miles": "10324851.6466320744"
            },
            "orbiting_body": "Earth"
        }
    ],
    "orbital_data": {
        "orbit_id": "3",
        "orbit_determination_date": "2017-04-06 08:40:42",
        "first_observation_date": "2014-04-28",
        "last_observation_date": "2014-05-02",
        "data_arc_in_days": 4,
        "observations_used": 8,
        "orbit_uncertainty": "9",
        "minimum_orbit_intersection": ".0998148",
        "jupiter_tisserand_invariant": "4.613",
        "epoch_osculation": "2456777.5",
        "eccentricity": ".2851658548785604",
        "semi_major_axis": "1.425515747405524",
        "inclination": "16.37259518804717",
        "ascending_node_longitude": "225.6461333002952",
        "orbital_period": "621.6650553071044",
        "perihelion_distance": "1.019007330653778",
        "perihelion_argument": "57.16066607323349",
        "aphelion_distance": "1.832024164157271",
        "perihelion_time": "2456842.335725560562",
        "mean_anomaly": "322.4542814453808",
        "mean_motion": ".5790899728506679",
        "equinox": "J2000",
        "orbit_class": {
            "orbit_class_type": "AMO",
            "orbit_class_description": "Near-Earth asteroid orbits similar to that of 1221 Amor",
            "orbit_class_range": "1.017 AU < q (perihelion) < 1.3 AU"
        }
    },
    "is_sentry_object": false
}